<?xml version="1.0" encoding="UTF-8"?>
<kml xmlns="http://www.opengis.net/kml/2.2">
  <Document>
    <name>Urban Area</name>
    <Placemark>
      <name>Urban Area</name>
      <Polygon>
        <outerBoundaryIs>
          <LinearRing>
            <coordinates>
              24.897435392029266,41.1360297048293,0
              24.89919521795509,41.14418280026278,0
              24.888809704649425,41.14689742817658,0
              24.885891461241222,41.14660658056115,0
              24.882286572325206,41.141888205698685,0
              24.87941124426124,41.140207606634,0
              24.877394223082042,41.13287064100231,0
              24.878080868589855,41.128442207377745,0
              24.88595583425758,41.127989649881975,0
              24.894302868711925,41.12826441730525,0
              24.897435392029266,41.1360297048293,0
            </coordinates>
          </LinearRing>
        </outerBoundaryIs>
      </Polygon>
    </Placemark>
  </Document>
</kml>
